NORAD_CAT_ID,OBJECT_NAME,OBJECT_TYPE,EPOCH,MEAN_MOTION,ECCENTRICITY,INCLINATION,RA_OF_ASC_NODE,ARG_OF_PERICENTER,MEAN_ANOMALY,BSTAR,MEAN_MOTION_DOT,MEAN_MOTION_DDOT,TLE_LINE0,TLE_LINE1,TLE_LINE2,SEMIMAJOR_AXIS,PERIOD,APOGEE,PERIGEE,DECAYED
53566.0,STARLINK-4576,PAYLOAD,2023-10-16 13:56:17,15.08848932,0.0001519,53.2182,22.6234,87.5875,272.5291,0.00095145,0.0001489,0.0,0 STARLINK-4576,1 53566U 22101AR  23289.58076081  .00014890  00000-0  95145-3 0  9999,2 53566  53.2182  22.6234 0001519  87.5875 272.5291 15.08848932 65022,6917.853,95.437,540.769,538.667,0.0
53566.0,STARLINK-4576,PAYLOAD,2023-10-16 15:31:40,15.08853965,0.0001519,53.2181,22.326,86.2805,273.8361,0.0011036,0.00017326,0.0,0 STARLINK-4576,1 53566U 22101AR  23289.64700014  .00017326  00000-0  11036-2 0  9999,2 53566  53.2181  22.3260 0001519  86.2805 273.8361 15.08853965 64344,6917.838,95.437,540.754,538.652,0.0
53566.0,STARLINK-4576,PAYLOAD,2023-10-17 12:11:41,15.08846777,0.000148,53.2179,18.4613,83.9769,276.1392,0.00037926,5.754e-05,0.0,0 STARLINK-4576,1 53566U 22101AR  23290.50812114  .00005754  00000-0  37926-3 0  9990,2 53566  53.2179  18.4613 0001480  83.9769 276.1392 15.08846777 64476,6917.86,95.437,540.749,538.701,0.0
53566.0,STARLINK-4576,PAYLOAD,2023-10-17 23:19:23,15.08850202,0.0001648,53.2181,16.3805,76.867,283.2506,0.00036682,5.556e-05,0.0,0 STARLINK-4576,1 53566U 22101AR  23290.97179996  .00005556  00000-0  36682-3 0  9993,2 53566  53.2181  16.3805 0001648  76.8670 283.2506 15.08850202 65236,6917.849,95.437,540.854,538.574,0.0
53566.0,STARLINK-4576,PAYLOAD,2023-10-18 12:02:28,15.08854632,0.0001484,53.2173,14.0005,86.332,273.7842,0.0002855,4.26e-05,0.0,0 STARLINK-4576,1 53566U 22101AR  23291.50171550  .00004260  00000-0  28550-3 0  9997,2 53566  53.2173  14.0005 0001484  86.3320 273.7842 15.08854632 65317,6917.836,95.437,540.727,538.674,0.0
53566.0,STARLINK-4576,PAYLOAD,2023-10-18 23:10:10,15.08852434,0.0001509,53.2174,11.9189,84.4846,275.6318,0.00034015,5.131e-05,0.0,0 STARLINK-4576,1 53566U 22101AR  23291.96539416  .00005131  00000-0  34015-3 0  9997,2 53566  53.2174  11.9189 0001509  84.4846 275.6318 15.08852434 64694,6917.842,95.437,540.751,538.663,0.0
53566.0,STARLINK-4576,PAYLOAD,2023-10-19 11:53:14,15.08854004,0.0001742,53.2191,9.5413,87.0535,273.0657,0.00019313,2.788e-05,0.0,0 STARLINK-4576,1 53566U 22101AR  23292.49531186  .00002788  00000-0  19313-3 0  9991,2 53566  53.2191   9.5413 0001742  87.0535 273.0657 15.08854004 65468,6917.838,95.437,540.908,538.497,0.0
53566.0,STARLINK-4576,PAYLOAD,2023-10-20 11:44:02,15.08839927,0.0001325,53.2187,5.0778,99.7565,260.3577,-5.1575e-05,-1.109e-05,0.0,0 STARLINK-4576,1 53566U 22101AR  23293.48891660 -.00001109  00000-0 -51575-4 0  9992,2 53566  53.2187   5.0778 0001325  99.7565 260.3577 15.08839927 64925,6917.881,95.438,540.662,538.829,0.0
53566.0,STARLINK-4576,PAYLOAD,2023-10-21 11:34:49,15.08843688,0.0001494,53.2196,0.622,106.757,253.3587,6.741e-05,7.85e-06,0.0,0 STARLINK-4576,1 53566U 22101AR  23294.48251914  .00000785  00000-0  67410-4 0  9997,2 53566  53.2196   0.6220 0001494 106.7570 253.3587 15.08843688 65765,6917.869,95.437,540.768,538.701,0.0
53566.0,STARLINK-4576,PAYLOAD,2023-10-21 21:07:08,15.08842957,0.0001279,53.2191,358.8346,88.1952,271.9187,7.9272e-05,9.74e-06,0.0,0 STARLINK-4576,1 53566U 22101AR  23294.87995861  .00000974  00000-0  79272-4 0  9995,2 53566  53.2191 358.8346 0001279  88.1952 271.9187 15.08842957 65822,6917.871,95.437,540.621,538.852,0.0
53566.0,STARLINK-4576,PAYLOAD,2023-10-22 11:25:37,15.08833391,0.0001191,53.2198,356.161,87.8635,272.2494,0.00011091,1.477e-05,0.0,0 STARLINK-4576,1 53566U 22101AR  23295.47612805  .00001477  00000-0  11091-3 0  9999,2 53566  53.2198 356.1610 0001191  87.8635 272.2494 15.08833391 65222,6917.901,95.438,540.59,538.942,0.0
53566.0,STARLINK-4576,PAYLOAD,2023-10-22 13:01:00,15.08835148,0.0001195,53.22,355.8628,83.3417,276.7711,0.00012093,1.637e-05,0.0,0 STARLINK-4576,1 53566U 22101AR  23295.54236673  .00001637  00000-0  12093-3 0  9993,2 53566  53.2200 355.8628 0001195  83.3417 276.7711 15.08835148 65924,6917.895,95.438,540.587,538.934,0.0
53566.0,STARLINK-4576,PAYLOAD,2023-10-22 20:57:56,15.08830652,0.0001336,53.2196,354.3759,91.3728,268.7417,3.6401e-05,2.91e-06,0.0,0 STARLINK-4576,1 53566U 22101AR  23295.87357042  .00000291  00000-0  36401-4 0  9998,2 53566  53.2196 354.3759 0001336  91.3728 268.7417 15.08830652 65972,6917.909,95.438,540.698,538.85,0.0
53566.0,STARLINK-4576,PAYLOAD,2023-10-23 11:16:25,15.08838034,0.000136,53.2197,351.697,79.9327,280.1818,1.9252e-05,1.8e-07,0.0,0 STARLINK-4576,1 53566U 22101AR  23296.46973444  .00000018  00000-0  19252-4 0  9996,2 53566  53.2197 351.6970 0001360  79.9327 280.1818 15.08838034 66068,6917.886,95.438,540.692,538.811,0.0
53566.0,STARLINK-4576,PAYLOAD,2023-10-24 11:07:11,15.08846226,0.0001409,53.2194,347.2388,81.5399,278.5752,0.00013328,1.834e-05,0.0,0 STARLINK-4576,1 53566U 22101AR  23297.46332934  .00001834  00000-0  13328-3 0  9994,2 53566  53.2194 347.2388 0001409  81.5399 278.5752 15.08846226 65521,6917.861,95.437,540.701,538.752,0.0
53566.0,STARLINK-4576,PAYLOAD,2023-10-25 10:57:58,15.08845506,0.0001551,53.2194,342.7786,84.5218,275.5952,0.00015026,2.105e-05,0.0,0 STARLINK-4576,1 53566U 22101AR  23298.45693049  .00002105  00000-0  15026-3 0  9990,2 53566  53.2194 342.7786 0001551  84.5218 275.5952 15.08845506 65679,6917.864,95.437,540.802,538.656,0.0
53566.0,STARLINK-4576,PAYLOAD,2023-10-25 20:30:17,15.08851705,0.0001444,53.2193,340.995,96.1344,263.9813,-1.4047e-06,-3.1e-06,0.0,0 STARLINK-4576,1 53566U 22101AR  23298.85436643 -.00000310  00000-0 -14047-5 0  9991,2 53566  53.2193 340.9950 0001444  96.1344 263.9813 15.08851705 66420,6917.845,95.437,540.709,538.711,0.0
53566.0,STARLINK-4576,PAYLOAD,2023-10-26 02:51:50,15.08791345,0.0001943,53.2198,339.8066,84.1389,275.9825,0.00081859,0.00012747,0.0,0 STARLINK-4576,1 53566U 22101AR  23299.11933791  .00012747  00000-0  81859-3 0  9995,2 53566  53.2198 339.8066 0001943  84.1389 275.9825 15.08791345 65776,6918.029,95.441,541.238,538.55,0.0
53566.0,STARLINK-4576,PAYLOAD,2023-10-26 09:13:22,15.08833846,0.0001603,53.2192,338.6166,80.3442,279.7732,0.00023588,3.467e-05,0.0,0 STARLINK-4576,1 53566U 22101AR  23299.38429283  .00003467  00000-0  23588-3 0  9994,2 53566  53.2192 338.6166 0001603  80.3442 279.7732 15.08833846 65816,6917.899,95.438,540.873,538.655,0.0
53566.0,STARLINK-4576,PAYLOAD,2023-10-26 20:21:04,15.0884905,0.00017,53.2193,336.535,77.0006,283.1176,9.7798e-05,1.269e-05,0.0,0 STARLINK-4576,1 53566U 22101AR  23299.84796527  .00001269  00000-0  97798-4 0  9996,2 53566  53.2193 336.5350 0001700  77.0006 283.1176 15.08849050 66575,6917.853,95.437,540.894,538.542,0.0
53566.0,STARLINK-4576,PAYLOAD,2023-10-27 12:14:54,15.08856762,0.0001573,53.2187,333.5585,92.3993,267.718,0.00011814,1.594e-05,0.0,0 STARLINK-4576,1 53566U 22101AR  23300.51035578  .00001594  00000-0  11814-3 0  9990,2 53566  53.2187 333.5585 0001573  92.3993 267.7180 15.08856762 66670,6917.829,95.436,540.782,538.606,0.0
53566.0,STARLINK-4576,PAYLOAD,2023-10-28 08:54:56,15.088341,0.0001604,53.2177,329.694,100.0873,260.03,-5.847e-05,-1.218e-05,0.0,0 STARLINK-4576,1 53566U 22101AR  23301.37149165 -.00001218  00000-0 -58470-4 0  9998,2 53566  53.2177 329.6940 0001604 100.0873 260.0300 15.08834100 66110,6917.898,95.438,540.873,538.654,0.0
53566.0,STARLINK-4576,PAYLOAD,2023-10-29 08:45:43,15.08851615,0.0001664,53.218,325.2347,103.4918,256.6259,0.00035244,5.327e-05,0.0,0 STARLINK-4576,1 53566U 22101AR  23302.36508724  .00005327  00000-0  35244-3 0  9994,2 53566  53.2180 325.2347 0001664 103.4918 256.6259 15.08851615 66260,6917.845,95.437,540.861,538.559,0.0
53566.0,STARLINK-4576,PAYLOAD,2023-10-29 18:18:02,15.08843956,0.0001686,53.2176,323.4517,107.0858,253.0318,0.00030044,4.497e-05,0.0,0 STARLINK-4576,1 53566U 22101AR  23302.76253082  .00004497  00000-0  30044-3 0  9992,2 53566  53.2176 323.4517 0001686 107.0858 253.0318 15.08843956 66324,6917.868,95.437,540.9,538.567,0.0
53566.0,STARLINK-4576,PAYLOAD,2023-10-30 02:14:58,15.08831555,0.0001496,53.2179,321.9638,97.4017,262.7145,5.9624e-05,6.61e-06,0.0,0 STARLINK-4576,1 53566U 22101AR  23303.09373679  .00000661  00000-0  59624-4 0  9999,2 53566  53.2179 321.9638 0001496  97.4017 262.7145 15.08831555 66374,6917.906,95.438,540.806,538.736,0.0
53566.0,STARLINK-4576,PAYLOAD,2023-10-30 18:08:50,15.08836137,0.0001592,53.2182,318.988,87.2588,272.8586,9.4412e-05,1.215e-05,0.0,0 STARLINK-4576,1 53566U 22101AR  23303.75613746  .00001215  00000-0  94412-4 0  9994,2 53566  53.2182 318.9880 0001592  87.2588 272.8586 15.08836137 67160,6917.892,95.438,540.859,538.656,0.0
53566.0,STARLINK-4576,PAYLOAD,2023-10-31 10:02:41,15.08839466,0.0001826,53.219,316.018,92.1462,267.9739,4.4085e-05,4.14e-06,0.0,0 STARLINK-4576,1 53566U 22101AR  23304.41853940  .00000414  00000-0  44085-4 0  9991,2 53566  53.2190 316.0180 0001826  92.1462 267.9739 15.08839466 66574,6917.882,95.438,541.01,538.484,0.0
53566.0,STARLINK-4576,PAYLOAD,2023-10-31 17:59:37,15.08842647,0.0001879,53.2196,314.5298,87.8993,272.2214,-0.00010265,-1.922e-05,0.0,0 STARLINK-4576,1 53566U 22101AR  23304.74973819 -.00001922  00000-0 -10265-3 0  9994,2 53566  53.2196 314.5298 0001879  87.8993 272.2214 15.08842647 67316,6917.872,95.437,541.037,538.437,0.0
53566.0,STARLINK-4576,PAYLOAD,2023-11-01 08:18:05,15.08845736,0.0001619,53.2176,311.8516,91.5507,268.5671,0.00026532,3.938e-05,0.0,0 STARLINK-4576,1 53566U 22101AR  23305.34589849  .00003938  00000-0  26532-3 0  9998,2 53566  53.2176 311.8516 0001619  91.5507 268.5671 15.08845736 67409,6917.863,95.437,540.848,538.608,0.0
53566.0,STARLINK-4576,PAYLOAD,2023-11-02 04:58:06,15.08842669,0.0001762,53.2179,307.9873,88.9884,271.131,0.0001677,2.382e-05,0.0,0 STARLINK-4576,1 53566U 22101AR  23306.20702065  .00002382  00000-0  16770-3 0  9996,2 53566  53.2179 307.9873 0001762  88.9884 271.1310 15.08842669 66840,6917.872,95.437,540.956,538.518,0.0
